[{"OBJECT_NAME":"ONEWEB-0316","OBJECT_ID":"2021-075AD","EPOCH":"2026-02-24T06:06:40.498560","MEAN_MOTION":13.18688661,"ECCENTRICITY":0.000182,"INCLINATION":87.9232,"RA_OF_ASC_NODE":357.8868,"ARG_OF_PERICENTER":76.5303,"MEAN_ANOMALY":283.6032,"EPHEMERIS_TYPE":0,"CLASSIFICATION_TYPE":"U","NORAD_CAT_ID":49102,"ELEMENT_SET_NO":999,"REV_AT_EPOCH":22232,"BSTAR":0.00030264818,"MEAN_MOTION_DOT":1.32e-6,"MEAN_MOTION_DDOT":0},{"OBJECT_NAME":"ONEWEB-0317","OBJECT_ID":"2021-075AE","EPOCH":"2026-02-23T20:20:00.649536","MEAN_MOTION":13.12443812,"ECCENTRICITY":0.00021462,"INCLINATION":87.899,"RA_OF_ASC_NODE":13.1578,"ARG_OF_PERICENTER":101.4321,"MEAN_ANOMALY":258.7048,"EPHEMERIS_TYPE":0,"CLASSIFICATION_TYPE":"U","NORAD_CAT_ID":49103,"ELEMENT_SET_NO":999,"REV_AT_EPOCH":22032,"BSTAR":-0.00029061099,"MEAN_MOTION_DOT":-9.2e-7,"MEAN_MOTION_DDOT":0},{"OBJECT_NAME":"ONEWEB-0318","OBJECT_ID":"2021-075AF","EPOCH":"2026-02-24T06:01:57.276768","MEAN_MOTION":13.18685306,"ECCENTRICITY":0.00018676,"INCLINATION":87.9244,"RA_OF_ASC_NODE":357.8789,"ARG_OF_PERICENTER":70.9453,"MEAN_ANOMALY":289.1881,"EPHEMERIS_TYPE":0,"CLASSIFICATION_TYPE":"U","NORAD_CAT_ID":49104,"ELEMENT_SET_NO":999,"REV_AT_EPOCH":22228,"BSTAR":0.00020052704,"MEAN_MOTION_DOT":9.2e-7,"MEAN_MOTION_DDOT":0},{"OBJECT_NAME":"ONEWEB-0319","OBJECT_ID":"2021-075AG","EPOCH":"2026-02-24T04:19:46.055424","MEAN_MOTION":13.17648788,"ECCENTRICITY":0.00018585,"INCLINATION":87.912,"RA_OF_ASC_NODE":28.3119,"ARG_OF_PERICENTER":65.9941,"MEAN_ANOMALY":294.1385,"EPHEMERIS_TYPE":0,"CLASSIFICATION_TYPE":"U","NORAD_CAT_ID":49105,"ELEMENT_SET_NO":999,"REV_AT_EPOCH":21872,"BSTAR":0.00013735575,"MEAN_MOTION_DOT":6.6e-7,"MEAN_MOTION_DDOT":0},{"OBJECT_NAME":"ONEWEB-0323","OBJECT_ID":"2021-075AH","EPOCH":"2026-02-24T06:51:50.871744","MEAN_MOTION":13.12442011,"ECCENTRICITY":0.00021396,"INCLINATION":87.8984,"RA_OF_ASC_NODE":13.0533,"ARG_OF_PERICENTER":63.8853,"MEAN_ANOMALY":296.2495,"EPHEMERIS_TYPE":0,"CLASSIFICATION_TYPE":"U","NORAD_CAT_ID":49106,"ELEMENT_SET_NO":999,"REV_AT_EPOCH":21974,"BSTAR":-0.0015571467,"MEAN_MOTION_DOT":-5.47e-6,"MEAN_MOTION_DDOT":0},{"OBJECT_NAME":"ONEWEB-0329","OBJECT_ID":"2021-075AJ","EPOCH":"2026-02-23T21:14:30.921504","MEAN_MOTION":13.17648191,"ECCENTRICITY":0.00020295,"INCLINATION":87.9121,"RA_OF_ASC_NODE":28.3711,"ARG_OF_PERICENTER":80.8496,"MEAN_ANOMALY":279.2865,"EPHEMERIS_TYPE":0,"CLASSIFICATION_TYPE":"U","NORAD_CAT_ID":49107,"ELEMENT_SET_NO":999,"REV_AT_EPOCH":21866,"BSTAR":-9.823146e-6,"MEAN_MOTION_DOT":9.0e-8,"MEAN_MOTION_DDOT":0},{"OBJECT_NAME":"ONEWEB-0330","OBJECT_ID":"2021-075AK","EPOCH":"2026-02-23T21:15:44.343360","MEAN_MOTION":13.17647366,"ECCENTRICITY":0.00021554,"INCLINATION":87.9123,"RA_OF_ASC_NODE":28.3787,"ARG_OF_PERICENTER":83.8882,"MEAN_ANOMALY":276.2495,"EPHEMERIS_TYPE":0,"CLASSIFICATION_TYPE":"U","NORAD_CAT_ID":49108,"ELEMENT_SET_NO":999,"REV_AT_EPOCH":21870,"BSTAR":8.93667e-6,"MEAN_MOTION_DOT":1.6e-7,"MEAN_MOTION_DDOT":0},{"OBJECT_NAME":"ONEWEB-0292","OBJECT_ID":"2021-083A","EPOCH":"2026-02-24T06:29:18.330720","MEAN_MOTION":13.13467431,"ECCENTRICITY":0.00018017,"INCLINATION":87.9034,"RA_OF_ASC_NODE":342.7037,"ARG_OF_PERICENTER":72.3589,"MEAN_ANOMALY":287.7737,"EPHEMERIS_TYPE":0,"CLASSIFICATION_TYPE":"U","NORAD_CAT_ID":49186,"ELEMENT_SET_NO":999,"REV_AT_EPOCH":21610,"BSTAR":-0.00030638505,"MEAN_MOTION_DOT":-9.9e-7,"MEAN_MOTION_DDOT":0},{"OBJECT_NAME":"ONEWEB-0303","OBJECT_ID":"2021-083B","EPOCH":"2026-02-24T05:57:11.825856","MEAN_MOTION":13.18685277,"ECCENTRICITY":0.00018556,"INCLINATION":87.9245,"RA_OF_ASC_NODE":357.8817,"ARG_OF_PERICENTER":72.7245,"MEAN_ANOMALY":287.409,"EPHEMERIS_TYPE":0,"CLASSIFICATION_TYPE":"U","NORAD_CAT_ID":49187,"ELEMENT_SET_NO":999,"REV_AT_EPOCH":21509,"BSTAR":0.00016874388,"MEAN_MOTION_DOT":7.9e-7,"MEAN_MOTION_DDOT":0},{"OBJECT_NAME":"ONEWEB-0306","OBJECT_ID":"2021-083C","EPOCH":"2026-02-24T05:42:56.588544","MEAN_MOTION":13.18685662,"ECCENTRICITY":0.000188,"INCLINATION":87.9241,"RA_OF_ASC_NODE":357.8677,"ARG_OF_PERICENTER":86.4608,"MEAN_ANOMALY":273.6739,"EPHEMERIS_TYPE":0,"CLASSIFICATION_TYPE":"U","NORAD_CAT_ID":49188,"ELEMENT_SET_NO":999,"REV_AT_EPOCH":21513,"BSTAR":9.414907e-5,"MEAN_MOTION_DOT":5.0e-7,"MEAN_MOTION_DDOT":0},{"OBJECT_NAME":"ONEWEB-0307","OBJECT_ID":"2021-083D","EPOCH":"2026-02-24T06:20:46.802976","MEAN_MOTION":13.13467852,"ECCENTRICITY":0.00018244,"INCLINATION":87.9029,"RA_OF_ASC_NODE":342.6943,"ARG_OF_PERICENTER":78.3791,"MEAN_ANOMALY":281.7543,"EPHEMERIS_TYPE":0,"CLASSIFICATION_TYPE":"U","NORAD_CAT_ID":49189,"ELEMENT_SET_NO":999,"REV_AT_EPOCH":21610,"BSTAR":0.00036329881,"MEAN_MOTION_DOT":1.45e-6,"MEAN_MOTION_DDOT":0},{"OBJECT_NAME":"ONEWEB-0320","OBJECT_ID":"2021-083E","EPOCH":"2026-02-24T05:55:21.132768","MEAN_MOTION":13.18240777,"ECCENTRICITY":0.00022703,"INCLINATION":87.9233,"RA_OF_ASC_NODE":357.8905,"ARG_OF_PERICENTER":63.1383,"MEAN_ANOMALY":296.9981,"EPHEMERIS_TYPE":0,"CLASSIFICATION_TYPE":"U","NORAD_CAT_ID":49190,"ELEMENT_SET_NO":999,"REV_AT_EPOCH":21509,"BSTAR":-0.056929493,"MEAN_MOTION_DOT":-0.0002223,"MEAN_MOTION_DDOT":0},{"OBJECT_NAME":"ONEWEB-0321","OBJECT_ID":"2021-083F","EPOCH":"2026-02-24T04:07:22.854720","MEAN_MOTION":13.20772254,"ECCENTRICITY":0.00016928,"INCLINATION":87.9195,"RA_OF_ASC_NODE":296.9979,"ARG_OF_PERICENTER":92.0112,"MEAN_ANOMALY":268.1215,"EPHEMERIS_TYPE":0,"CLASSIFICATION_TYPE":"U","NORAD_CAT_ID":49191,"ELEMENT_SET_NO":999,"REV_AT_EPOCH":22191,"BSTAR":0.00019146288,"MEAN_MOTION_DOT":9.1e-7,"MEAN_MOTION_DDOT":0},{"OBJECT_NAME":"ONEWEB-0322","OBJECT_ID":"2021-083G","EPOCH":"2026-02-24T06:14:41.032032","MEAN_MOTION":13.13468084,"ECCENTRICITY":0.00015691,"INCLINATION":87.9032,"RA_OF_ASC_NODE":342.6996,"ARG_OF_PERICENTER":93.7933,"MEAN_ANOMALY":266.3376,"EPHEMERIS_TYPE":0,"CLASSIFICATION_TYPE":"U","NORAD_CAT_ID":49192,"ELEMENT_SET_NO":999,"REV_AT_EPOCH":21609,"BSTAR":0.00058975045,"MEAN_MOTION_DOT":2.28e-6,"MEAN_MOTION_DDOT":0},{"OBJECT_NAME":"ONEWEB-0324","OBJECT_ID":"2021-083H","EPOCH":"2026-02-24T05:33:26.735616","MEAN_MOTION":13.18685416,"ECCENTRICITY":0.00019834,"INCLINATION":87.924,"RA_OF_ASC_NODE":357.8751,"ARG_OF_PERICENTER":80.1746,"MEAN_ANOMALY":279.961,"EPHEMERIS_TYPE":0,"CLASSIFICATION_TYPE":"U","NORAD_CAT_ID":49193,"ELEMENT_SET_NO":999,"REV_AT_EPOCH":21511,"BSTAR":6.0379652e-5,"MEAN_MOTION_DOT":3.7e-7,"MEAN_MOTION_DDOT":0},{"OBJECT_NAME":"ONEWEB-0325","OBJECT_ID":"2021-083J","EPOCH":"2026-02-24T05:38:11.940288","MEAN_MOTION":13.18684972,"ECCENTRICITY":0.00017666,"INCLINATION":87.9232,"RA_OF_ASC_NODE":357.8924,"ARG_OF_PERICENTER":79.9477,"MEAN_ANOMALY":280.1855,"EPHEMERIS_TYPE":0,"CLASSIFICATION_TYPE":"U","NORAD_CAT_ID":49194,"ELEMENT_SET_NO":999,"REV_AT_EPOCH":21512,"BSTAR":7.394527e-5,"MEAN_MOTION_DOT":4.2e-7,"MEAN_MOTION_DDOT":0},{"OBJECT_NAME":"ONEWEB-0326","OBJECT_ID":"2021-083K","EPOCH":"2026-02-24T05:59:46.357440","MEAN_MOTION":13.18686165,"ECCENTRICITY":0.00017732,"INCLINATION":87.9241,"RA_OF_ASC_NODE":357.8778,"ARG_OF_PERICENTER":69.843,"MEAN_ANOMALY":290.2893,"EPHEMERIS_TYPE":0,"CLASSIFICATION_TYPE":"U","NORAD_CAT_ID":49195,"ELEMENT_SET_NO":999,"REV_AT_EPOCH":21511,"BSTAR":0.00027732448,"MEAN_MOTION_DOT":1.22e-6,"MEAN_MOTION_DDOT":0}]
