ONEWEB-0316             
1 49102U 21075AD  26055.25463540  .00000132  00000+0  30265-3 0  9992
2 49102  87.9232 357.8868 0001820  76.5303 283.6032 13.18688661222322
ONEWEB-0317             
1 49103U 21075AE  26054.84722974 -.00000092  00000+0 -29061-3 0  9995
2 49103  87.8990  13.1578 0002146 101.4321 258.7048 13.12443812220322
ONEWEB-0318             
1 49104U 21075AF  26055.25135737  .00000092  00000+0  20053-3 0  9997
2 49104  87.9244 357.8789 0001867  70.9453 289.1881 13.18685306222285
ONEWEB-0319             
1 49105U 21075AG  26055.18039416  .00000066  00000+0  13736-3 0  9998
2 49105  87.9120  28.3119 0001858  65.9941 294.1385 13.17648788218723
ONEWEB-0323             
1 49106U 21075AH  26055.28600546 -.00000547  00000+0 -15571-2 0  9992
2 49106  87.8984  13.0533 0002139  63.8853 296.2495 13.12442011219748
ONEWEB-0329             
1 49107U 21075AJ  26054.88508011  .00000009  00000+0 -98231-5 0  9991
2 49107  87.9121  28.3711 0002029  80.8496 279.2865 13.17648191218664
ONEWEB-0330             
1 49108U 21075AK  26054.88592990  .00000016  00000+0  89367-5 0  9998
2 49108  87.9123  28.3787 0002155  83.8882 276.2495 13.17647366218706
ONEWEB-0292             
1 49186U 21083A   26055.27035105 -.00000099  00000+0 -30639-3 0  9996
2 49186  87.9034 342.7037 0001801  72.3589 287.7737 13.13467431216105
ONEWEB-0303             
1 49187U 21083B   26055.24805354  .00000079  00000+0  16874-3 0  9996
2 49187  87.9245 357.8817 0001855  72.7245 287.4090 13.18685277215096
ONEWEB-0306             
1 49188U 21083C   26055.23815496  .00000050  00000+0  94149-4 0  9995
2 49188  87.9241 357.8677 0001880  86.4608 273.6739 13.18685662215130
ONEWEB-0307             
1 49189U 21083D   26055.26443059  .00000145  00000+0  36330-3 0  9993
2 49189  87.9029 342.6943 0001824  78.3791 281.7543 13.13467852216109
ONEWEB-0320             
1 49190U 21083E   26055.24677237 -.00022230  00000+0 -56929-1 0  9995
2 49190  87.9233 357.8905 0002270  63.1383 296.9981 13.18240777215090
ONEWEB-0321             
1 49191U 21083F   26055.17179230  .00000091  00000+0  19146-3 0  9999
2 49191  87.9195 296.9979 0001692  92.0112 268.1215 13.20772254221912
ONEWEB-0322             
1 49192U 21083G   26055.26019713  .00000228  00000+0  58975-3 0  9994
2 49192  87.9032 342.6996 0001569  93.7933 266.3376 13.13468084216099
ONEWEB-0324             
1 49193U 21083H   26055.23155944  .00000037  00000+0  60380-4 0  9991
2 49193  87.9240 357.8751 0001983  80.1746 279.9610 13.18685416215118
ONEWEB-0325             
1 49194U 21083J   26055.23486042  .00000042  00000+0  73945-4 0  9995
2 49194  87.9232 357.8924 0001766  79.9477 280.1855 13.18684972215120
ONEWEB-0326             
1 49195U 21083K   26055.24984210  .00000122  00000+0  27732-3 0  9998
2 49195  87.9241 357.8778 0001773  69.8430 290.2893 13.18686165215112
